[{"OBJECT_NAME":"YAOGAN-30 10C","OBJECT_ID":"2021-055D","EPOCH":"2026-03-09T22:27:53.002368","MEAN_MOTION":15.02142069,"ECCENTRICITY":0.0003131,"INCLINATION":34.9969,"RA_OF_ASC_NODE":36.2181,"ARG_OF_PERICENTER":356.3915,"MEAN_ANOMALY":3.677,"EPHEMERIS_TYPE":0,"CLASSIFICATION_TYPE":"U","NORAD_CAT_ID":48863,"ELEMENT_SET_NO":999,"REV_AT_EPOCH":25795,"BSTAR":0.00033693874,"MEAN_MOTION_DOT":4.496e-5,"MEAN_MOTION_DDOT":0},{"OBJECT_NAME":"IMS-1","OBJECT_ID":"2008-021D","EPOCH":"2026-03-09T22:27:26.707392","MEAN_MOTION":15.03517095,"ECCENTRICITY":0.00068607,"INCLINATION":97.9418,"RA_OF_ASC_NODE":52.6663,"ARG_OF_PERICENTER":75.5168,"MEAN_ANOMALY":284.6817,"EPHEMERIS_TYPE":0,"CLASSIFICATION_TYPE":"U","NORAD_CAT_ID":32786,"ELEMENT_SET_NO":999,"REV_AT_EPOCH":96828,"BSTAR":0.00046947389,"MEAN_MOTION_DOT":6.344e-5,"MEAN_MOTION_DDOT":0}]
